{
    "week": 293,
    "satellites": [
        {
            "Name": "BEIDOU-2 IGSO-1 (C06)",
            "Line1": "1 36828U 10036A   24321.40463035 -.00000043  00000+0  00000+0 0  9990",
            "Line2": "2 36828  54.2559 168.1857 0042751 205.9172 293.9948  1.00286591 52430",
            "SatelliteNumber": "36828",
            "Classification": "U",
            "LaunchYear": "10",
            "LaunchNumber": "036",
            "PieceOfLaunch": "A",
            "EpochYear": "24",
            "EpochDay": 321.40463035,
            "FirstDerivativeMeanMotion": -4.3e-07,
            "SecondDerivativeMeanMotion": "00000+0",
            "BSTAR": "00000+0",
            "SetNumber": "999",
            "Inclination": 54.2559,
            "RAAN": 168.1857,
            "Eccentricity": 0.0042751,
            "ArgumentOfPerigee": 205.9172,
            "MeanAnomaly": 293.9948,
            "MeanMotion": 1.00286591,
            "RevolutionNumber": "5243"
        },
        {
            "Name": "BEIDOU-2 G4 (C04)",
            "Line1": "1 37210U 10057A   24321.43985616 -.00000105  00000+0  00000+0 0  9995",
            "Line2": "2 37210   2.2144  70.0599 0009674 177.4524 126.8063  1.00272321 51497",
            "SatelliteNumber": "37210",
            "Classification": "U",
            "LaunchYear": "10",
            "LaunchNumber": "057",
            "PieceOfLaunch": "A",
            "EpochYear": "24",
            "EpochDay": 321.43985616,
            "FirstDerivativeMeanMotion": -1.05e-06,
            "SecondDerivativeMeanMotion": "00000+0",
            "BSTAR": "00000+0",
            "SetNumber": "999",
            "Inclination": 2.2144,
            "RAAN": 70.0599,
            "Eccentricity": 0.0009674,
            "ArgumentOfPerigee": 177.4524,
            "MeanAnomaly": 126.8063,
            "MeanMotion": 1.00272321,
            "RevolutionNumber": "5149"
        },
        {
            "Name": "BEIDOU-2 IGSO-2 (C07)",
            "Line1": "1 37256U 10068A   24320.59449000 -.00000224  00000+0  00000+0 0  9997",
            "Line2": "2 37256  48.6033 278.9702 0038522 218.1458 237.8648  1.00253789 50999",
            "SatelliteNumber": "37256",
            "Classification": "U",
            "LaunchYear": "10",
            "LaunchNumber": "068",
            "PieceOfLaunch": "A",
            "EpochYear": "24",
            "EpochDay": 320.59449,
            "FirstDerivativeMeanMotion": -2.24e-06,
            "SecondDerivativeMeanMotion": "00000+0",
            "BSTAR": "00000+0",
            "SetNumber": "999",
            "Inclination": 48.6033,
            "RAAN": 278.9702,
            "Eccentricity": 0.0038522,
            "ArgumentOfPerigee": 218.1458,
            "MeanAnomaly": 237.8648,
            "MeanMotion": 1.00253789,
            "RevolutionNumber": "5099"
        },
        {
            "Name": "BEIDOU-2 IGSO-3 (C08)",
            "Line1": "1 37384U 11013A   24320.83805049 -.00000213  00000+0  00000+0 0  9994",
            "Line2": "2 37384  61.5774  45.6550 0031757 179.9170 239.2416  1.00270143 49861",
            "SatelliteNumber": "37384",
            "Classification": "U",
            "LaunchYear": "11",
            "LaunchNumber": "013",
            "PieceOfLaunch": "A",
            "EpochYear": "24",
            "EpochDay": 320.83805049,
            "FirstDerivativeMeanMotion": -2.13e-06,
            "SecondDerivativeMeanMotion": "00000+0",
            "BSTAR": "00000+0",
            "SetNumber": "999",
            "Inclination": 61.5774,
            "RAAN": 45.655,
            "Eccentricity": 0.0031757,
            "ArgumentOfPerigee": 179.917,
            "MeanAnomaly": 239.2416,
            "MeanMotion": 1.00270143,
            "RevolutionNumber": "4986"
        },
        {
            "Name": "BEIDOU-2 IGSO-4 (C09)",
            "Line1": "1 37763U 11038A   24321.58209049  .00000016  00000+0  00000+0 0  9993",
            "Line2": "2 37763  54.5618 170.8317 0129639 228.5671 322.6145  1.00275876 48848",
            "SatelliteNumber": "37763",
            "Classification": "U",
            "LaunchYear": "11",
            "LaunchNumber": "038",
            "PieceOfLaunch": "A",
            "EpochYear": "24",
            "EpochDay": 321.58209049,
            "FirstDerivativeMeanMotion": 1.6e-07,
            "SecondDerivativeMeanMotion": "00000+0",
            "BSTAR": "00000+0",
            "SetNumber": "999",
            "Inclination": 54.5618,
            "RAAN": 170.8317,
            "Eccentricity": 0.0129639,
            "ArgumentOfPerigee": 228.5671,
            "MeanAnomaly": 322.6145,
            "MeanMotion": 1.00275876,
            "RevolutionNumber": "4884"
        },
        {
            "Name": "BEIDOU-2 IGSO-5 (C10)",
            "Line1": "1 37948U 11073A   24321.35257803 -.00000197  00000+0  00000+0 0  9994",
            "Line2": "2 37948  48.7367 278.6564 0101422 221.9968 136.4012  1.00257782 47609",
            "SatelliteNumber": "37948",
            "Classification": "U",
            "LaunchYear": "11",
            "LaunchNumber": "073",
            "PieceOfLaunch": "A",
            "EpochYear": "24",
            "EpochDay": 321.35257803,
            "FirstDerivativeMeanMotion": -1.97e-06,
            "SecondDerivativeMeanMotion": "00000+0",
            "BSTAR": "00000+0",
            "SetNumber": "999",
            "Inclination": 48.7367,
            "RAAN": 278.6564,
            "Eccentricity": 0.0101422,
            "ArgumentOfPerigee": 221.9968,
            "MeanAnomaly": 136.4012,
            "MeanMotion": 1.00257782,
            "RevolutionNumber": "4760"
        },
        {
            "Name": "BEIDOU-2 G5 (C05)",
            "Line1": "1 38091U 12008A   24321.16148212  .00000063  00000+0  00000+0 0  9996",
            "Line2": "2 38091   2.1337  70.8586 0010341 220.7747 241.0578  1.00275989 46571",
            "SatelliteNumber": "38091",
            "Classification": "U",
            "LaunchYear": "12",
            "LaunchNumber": "008",
            "PieceOfLaunch": "A",
            "EpochYear": "24",
            "EpochDay": 321.16148212,
            "FirstDerivativeMeanMotion": 6.3e-07,
            "SecondDerivativeMeanMotion": "00000+0",
            "BSTAR": "00000+0",
            "SetNumber": "999",
            "Inclination": 2.1337,
            "RAAN": 70.8586,
            "Eccentricity": 0.0010341,
            "ArgumentOfPerigee": 220.7747,
            "MeanAnomaly": 241.0578,
            "MeanMotion": 1.00275989,
            "RevolutionNumber": "4657"
        },
        {
            "Name": "BEIDOU-2 M3 (C11)",
            "Line1": "1 38250U 12018A   24320.89027190 -.00000073  00000+0  00000+0 0  9996",
            "Line2": "2 38250  56.2317 324.2849 0025534 266.1490  93.5747  1.86233464 85176",
            "SatelliteNumber": "38250",
            "Classification": "U",
            "LaunchYear": "12",
            "LaunchNumber": "018",
            "PieceOfLaunch": "A",
            "EpochYear": "24",
            "EpochDay": 320.8902719,
            "FirstDerivativeMeanMotion": -7.3e-07,
            "SecondDerivativeMeanMotion": "00000+0",
            "BSTAR": "00000+0",
            "SetNumber": "999",
            "Inclination": 56.2317,
            "RAAN": 324.2849,
            "Eccentricity": 0.0025534,
            "ArgumentOfPerigee": 266.149,
            "MeanAnomaly": 93.5747,
            "MeanMotion": 1.86233464,
            "RevolutionNumber": "8517"
        },
        {
            "Name": "BEIDOU-2 M4 (C12)",
            "Line1": "1 38251U 12018B   24320.82068452 -.00000073  00000+0  00000+0 0  9996",
            "Line2": "2 38251  56.1370 323.5474 0016423 268.2250  91.6018  1.86231890 85176",
            "SatelliteNumber": "38251",
            "Classification": "U",
            "LaunchYear": "12",
            "LaunchNumber": "018",
            "PieceOfLaunch": "B",
            "EpochYear": "24",
            "EpochDay": 320.82068452,
            "FirstDerivativeMeanMotion": -7.3e-07,
            "SecondDerivativeMeanMotion": "00000+0",
            "BSTAR": "00000+0",
            "SetNumber": "999",
            "Inclination": 56.137,
            "RAAN": 323.5474,
            "Eccentricity": 0.0016423,
            "ArgumentOfPerigee": 268.225,
            "MeanAnomaly": 91.6018,
            "MeanMotion": 1.8623189,
            "RevolutionNumber": "8517"
        },
        {
            "Name": "BEIDOU-2 M6 (C14)",
            "Line1": "1 38775U 12050B   24321.60420067 -.00000034  00000+0  00000+0 0  9991",
            "Line2": "2 38775  56.0404  82.0748 0010557 342.9240  17.0089  1.86230876 82907",
            "SatelliteNumber": "38775",
            "Classification": "U",
            "LaunchYear": "12",
            "LaunchNumber": "050",
            "PieceOfLaunch": "B",
            "EpochYear": "24",
            "EpochDay": 321.60420067,
            "FirstDerivativeMeanMotion": -3.4e-07,
            "SecondDerivativeMeanMotion": "00000+0",
            "BSTAR": "00000+0",
            "SetNumber": "999",
            "Inclination": 56.0404,
            "RAAN": 82.0748,
            "Eccentricity": 0.0010557,
            "ArgumentOfPerigee": 342.924,
            "MeanAnomaly": 17.0089,
            "MeanMotion": 1.86230876,
            "RevolutionNumber": "8290"
        }
    ]
}